SIRION PATHFINDER-2     
1 43759U 18099B   26132.56685789  .00003136  00000+0  17510-3 0  9992
2 43759  97.4283 182.4749 0010261  68.9121 291.3207 15.14213536407236
CORVUS BC4              
1 43767U 18099K   26132.85634655  .00002972  00000+0  17562-3 0  9993
2 43767  97.4099 176.8737 0009934 118.9467 241.2761 15.12199063407064
M2 PATHFINDER           
1 45727U 20037E   26132.79928987  .00001677  00000+0  12419-3 0  9990
2 45727  97.8165 323.6354 0010129 272.8977  87.1089 15.04518769320176
NETSAT-4                
1 46504U 20068U   26132.91623086  .00011412  00000+0  26370-3 0  9993
2 46504  97.8617 138.3574 0007650  90.5575 269.6547 15.42669588310332
NETSAT-3                
1 46505U 20068V   26132.76500570  .00012101  00000+0  29114-3 0  9994
2 46505  97.8666 136.4576 0007548 103.6114 256.5972 15.41436193310227
NETSAT-1                
1 46506U 20068W   26132.91493704  .00008316  00000+0  25721-3 0  9995
2 46506  97.8750 131.3565 0006745 122.3403 237.8492 15.33763006309898
NETSAT-2                
1 46507U 20068X   26132.93615373  .00014452  00000+0  31380-3 0  9992
2 46507  97.8632 138.1550 0006189 111.3110 248.8798 15.44472760310295
GREENCUBE (IO-117)      
1 53109U 22080E   26132.54356058 -.00000003  00000+0  00000+0 0  9992
2 53109  70.1440 310.6463 0008862 297.7055  62.2705  6.42583333 89778
SITRO-AIS 5 (KATYS)     
1 57176U 23091L   26132.92664438  .00007685  00000+0  27834-3 0  9999
2 57176  97.5084 196.5105 0010714 219.8145 140.2309 15.28624878158959
SITRO-AIS 6 (CHIRKIN)   
1 57192U 23091AC  26132.95721803  .00003738  00000+0  15145-3 0  9997
2 57192  97.5090 195.8428 0010875 223.5028 136.5353 15.25250412158913
SITRO-AIS 8 (ANOKHIN)   
1 57193U 23091AD  26132.93818922  .00008058  00000+0  26996-3 0  9991
2 57193  97.5079 197.9720 0010030 214.9141 145.1443 15.31157509159054
SITRO-AIS 7 (FARTUSHNIY)
1 57194U 23091AE  26132.95335951  .00003582  00000+0  14654-3 0  9995
2 57194  97.5088 195.6817 0010695 224.7015 135.3361 15.24956316158901
SITRO-AIS 10 (BURDAEV)  
1 57199U 23091AK  26132.91822944  .00011694  00000+0  32245-3 0  9998
2 57199  97.5100 202.6538 0007050 186.2276 173.8882 15.37249725159349
SITRO-AIS 9 (SHCHUKIN)  
1 57201U 23091AM  26132.93391504  .00012119  00000+0  33895-3 0  9992
2 57201  97.5098 202.4263 0007252 186.9368 173.1776 15.36797035159330
SITRO-AIS 12 (SMIRENNIY)
1 57204U 23091AQ  26132.93111905  .00012424  00000+0  34425-3 0  9999
2 57204  97.5111 202.8688 0007063 180.8949 179.2283 15.37081921159355
SITRO-AIS 11 (SHEFFER)  
1 57208U 23091AU  26132.95388771  .00012678  00000+0  34683-3 0  9999
2 57208  97.5109 203.1174 0006984 180.5814 179.5423 15.37473884159373
SITRO-AIS 25            
1 59066U 24039R   26132.93085968  .00002833  00000+0  22113-3 0  9993
2 59066  95.3921 210.8691 0147475  91.4325 270.3799 14.93260590119463
SITRO-AIS 26            
1 59067U 24039S   26132.92749088  .00002758  00000+0  21628-3 0  9999
2 59067  95.3925 210.7717 0147811  91.9706 269.8454 14.93063570119457
SITRO-AIS 27            
1 59068U 24039T   26132.97453713  .00003357  00000+0  26034-3 0  9994
2 59068  95.3924 211.0593 0147002  90.5269 271.2803 14.93475622119487
SITRO-AIS 28            
1 59071U 24039U   26132.88579069  .00003344  00000+0  25929-3 0  9999
2 59071  95.3925 211.0437 0146787  90.6988 271.1059 14.93508335119476
GRBBETA                 
1 60237U 24128C   26132.90858408  .00002688  00000+0  19243-3 0  9996
2 60237  61.9907 340.0140 0045312 127.3839 233.1393 15.06341447100956
OOV-CUBE (TUBSAT-30)    
1 60240U 24128F   26132.92065993  .00001471  00000+0  12313-3 0  9991
2 60240  61.9950 348.5294 0048924 126.0791 234.4846 15.02588891100810
ROBUSTA-3A (MEDITERRAN*)
1 60243U 24128J   26132.93794652  .00005104  00000+0  30884-3 0  9996
2 60243  61.9871 332.8447 0046044 121.1972 239.3649 15.11107188101091
LASARSAT                
1 62391U 24247Q   26132.61356156  .00020586  00000+0  44601-3 0  9995
2 62391  44.9736 101.7573 0004704 116.8398 243.2973 15.44141719 77811
CROCUBE                 
1 62394U 24247T   26132.32804579  .00022835  00000+0  46807-3 0  9992
2 62394  44.9711 101.2241 0004332 116.6031 243.5302 15.45714762 77794
FORESAIL-1 PRIME        
1 66778U 25276DS  26132.94017593  .00003126  00000+0  15541-3 0  9998
2 66778  97.4209 206.8634 0001800 188.1800 171.9405 15.18368177 25057
KNACKSAT-2              
1 67683U 98067XZ  26132.95143437  .00030260  00000+0  41696-3 0  9999
2 67683  51.6274 111.2743 0012521  68.6895 291.5432 15.56875611 14780
